[{"OBJECT_NAME":"FENGYUN 1C DEB","OBJECT_ID":"1999-025BUF","EPOCH":"2026-04-05T01:15:56.971008","MEAN_MOTION":14.5038497,"ECCENTRICITY":0.01883005,"INCLINATION":99.2103,"RA_OF_ASC_NODE":209.9533,"ARG_OF_PERICENTER":120.6219,"MEAN_ANOMALY":241.3691,"EPHEMERIS_TYPE":0,"CLASSIFICATION_TYPE":"U","NORAD_CAT_ID":31443,"ELEMENT_SET_NO":999,"REV_AT_EPOCH":68583,"BSTAR":0.0019344166,"MEAN_MOTION_DOT":9.445e-5,"MEAN_MOTION_DDOT":0},{"OBJECT_NAME":"FENGYUN 1C DEB","OBJECT_ID":"1999-025BUG","EPOCH":"2026-04-05T03:21:29.117376","MEAN_MOTION":14.74583118,"ECCENTRICITY":0.00583364,"INCLINATION":98.9329,"RA_OF_ASC_NODE":53.2574,"ARG_OF_PERICENTER":79.4026,"MEAN_ANOMALY":281.3744,"EPHEMERIS_TYPE":0,"CLASSIFICATION_TYPE":"U","NORAD_CAT_ID":31444,"ELEMENT_SET_NO":999,"REV_AT_EPOCH":99157,"BSTAR":0.0032715261,"MEAN_MOTION_DOT":0.00022406,"MEAN_MOTION_DDOT":0},{"OBJECT_NAME":"FENGYUN 1C DEB","OBJECT_ID":"1999-025BUK","EPOCH":"2026-04-02T20:20:12.584832","MEAN_MOTION":14.24185839,"ECCENTRICITY":0.02305462,"INCLINATION":98.9743,"RA_OF_ASC_NODE":141.6547,"ARG_OF_PERICENTER":35.3331,"MEAN_ANOMALY":326.2881,"EPHEMERIS_TYPE":0,"CLASSIFICATION_TYPE":"U","NORAD_CAT_ID":31447,"ELEMENT_SET_NO":999,"REV_AT_EPOCH":66433,"BSTAR":0.00025711665,"MEAN_MOTION_DOT":7.29e-6,"MEAN_MOTION_DDOT":0},{"OBJECT_NAME":"FENGYUN 1C DEB","OBJECT_ID":"1999-025BUL","EPOCH":"2026-03-21T18:29:44.882304","MEAN_MOTION":14.28205934,"ECCENTRICITY":0.00575921,"INCLINATION":98.4993,"RA_OF_ASC_NODE":94.4194,"ARG_OF_PERICENTER":273.9093,"MEAN_ANOMALY":85.5506,"EPHEMERIS_TYPE":0,"CLASSIFICATION_TYPE":"U","NORAD_CAT_ID":31448,"ELEMENT_SET_NO":999,"REV_AT_EPOCH":65717,"BSTAR":0.00060852012,"MEAN_MOTION_DOT":1.5e-5,"MEAN_MOTION_DDOT":0},{"OBJECT_NAME":"FENGYUN 1C DEB","OBJECT_ID":"1999-025BUM","EPOCH":"2026-04-04T21:20:14.513568","MEAN_MOTION":14.3387814,"ECCENTRICITY":0.01436061,"INCLINATION":98.5336,"RA_OF_ASC_NODE":157.0686,"ARG_OF_PERICENTER":293.803,"MEAN_ANOMALY":64.8154,"EPHEMERIS_TYPE":0,"CLASSIFICATION_TYPE":"U","NORAD_CAT_ID":31449,"ELEMENT_SET_NO":999,"REV_AT_EPOCH":99258,"BSTAR":0.00020567033,"MEAN_MOTION_DOT":5.94e-6,"MEAN_MOTION_DDOT":0},{"OBJECT_NAME":"FENGYUN 1C DEB","OBJECT_ID":"1999-025BUP","EPOCH":"2026-04-04T21:03:57.136896","MEAN_MOTION":14.13792464,"ECCENTRICITY":0.00301732,"INCLINATION":98.7464,"RA_OF_ASC_NODE":139.6035,"ARG_OF_PERICENTER":249.323,"MEAN_ANOMALY":291.9455,"EPHEMERIS_TYPE":0,"CLASSIFICATION_TYPE":"U","NORAD_CAT_ID":31451,"ELEMENT_SET_NO":999,"REV_AT_EPOCH":97608,"BSTAR":0.00041067613,"MEAN_MOTION_DOT":7.37e-6,"MEAN_MOTION_DDOT":0},{"OBJECT_NAME":"FENGYUN 1C DEB","OBJECT_ID":"1999-025BUQ","EPOCH":"2026-04-01T16:45:26.010144","MEAN_MOTION":14.15355593,"ECCENTRICITY":0.00400491,"INCLINATION":98.6716,"RA_OF_ASC_NODE":80.5117,"ARG_OF_PERICENTER":172.2032,"MEAN_ANOMALY":187.9773,"EPHEMERIS_TYPE":0,"CLASSIFICATION_TYPE":"U","NORAD_CAT_ID":31452,"ELEMENT_SET_NO":999,"REV_AT_EPOCH":97761,"BSTAR":0.00034926232,"MEAN_MOTION_DOT":6.43e-6,"MEAN_MOTION_DDOT":0},{"OBJECT_NAME":"FENGYUN 1C DEB","OBJECT_ID":"1999-025BUT","EPOCH":"2026-04-04T04:36:47.969568","MEAN_MOTION":14.11587605,"ECCENTRICITY":0.02186017,"INCLINATION":98.587,"RA_OF_ASC_NODE":82.6015,"ARG_OF_PERICENTER":90.0899,"MEAN_ANOMALY":272.5322,"EPHEMERIS_TYPE":0,"CLASSIFICATION_TYPE":"U","NORAD_CAT_ID":31455,"ELEMENT_SET_NO":999,"REV_AT_EPOCH":97690,"BSTAR":0.00038740931,"MEAN_MOTION_DOT":8.4e-6,"MEAN_MOTION_DDOT":0},{"OBJECT_NAME":"FENGYUN 1C DEB","OBJECT_ID":"1999-025BUU","EPOCH":"2026-04-02T00:51:30.204000","MEAN_MOTION":14.4316085,"ECCENTRICITY":0.00664001,"INCLINATION":98.5754,"RA_OF_ASC_NODE":200.0494,"ARG_OF_PERICENTER":343.5907,"MEAN_ANOMALY":16.3133,"EPHEMERIS_TYPE":0,"CLASSIFICATION_TYPE":"U","NORAD_CAT_ID":31456,"ELEMENT_SET_NO":999,"REV_AT_EPOCH":99057,"BSTAR":0.00073085132,"MEAN_MOTION_DOT":2.475e-5,"MEAN_MOTION_DDOT":0},{"OBJECT_NAME":"FENGYUN 1C DEB","OBJECT_ID":"1999-025BUX","EPOCH":"2026-04-01T11:30:42.339744","MEAN_MOTION":14.45444453,"ECCENTRICITY":0.00918453,"INCLINATION":98.1717,"RA_OF_ASC_NODE":0.5915,"ARG_OF_PERICENTER":157.3897,"MEAN_ANOMALY":203.1382,"EPHEMERIS_TYPE":0,"CLASSIFICATION_TYPE":"U","NORAD_CAT_ID":31459,"ELEMENT_SET_NO":999,"REV_AT_EPOCH":66142,"BSTAR":0.0011889065,"MEAN_MOTION_DOT":4.368e-5,"MEAN_MOTION_DDOT":0},{"OBJECT_NAME":"FENGYUN 1C DEB","OBJECT_ID":"1999-025BVA","EPOCH":"2026-04-03T06:41:42.228672","MEAN_MOTION":14.1316574,"ECCENTRICITY":0.0031175,"INCLINATION":98.6828,"RA_OF_ASC_NODE":113.3972,"ARG_OF_PERICENTER":246.8769,"MEAN_ANOMALY":174.1277,"EPHEMERIS_TYPE":0,"CLASSIFICATION_TYPE":"U","NORAD_CAT_ID":31462,"ELEMENT_SET_NO":999,"REV_AT_EPOCH":97431,"BSTAR":0.00043257,"MEAN_MOTION_DOT":7.7e-6,"MEAN_MOTION_DDOT":0},{"OBJECT_NAME":"FENGYUN 1C DEB","OBJECT_ID":"1999-025BVB","EPOCH":"2026-04-05T05:35:44.021760","MEAN_MOTION":14.37384741,"ECCENTRICITY":0.02128991,"INCLINATION":99.0929,"RA_OF_ASC_NODE":88.3442,"ARG_OF_PERICENTER":66.9759,"MEAN_ANOMALY":295.3724,"EPHEMERIS_TYPE":0,"CLASSIFICATION_TYPE":"U","NORAD_CAT_ID":31463,"ELEMENT_SET_NO":999,"REV_AT_EPOCH":66350,"BSTAR":0.00069242719,"MEAN_MOTION_DOT":2.632e-5,"MEAN_MOTION_DDOT":0},{"OBJECT_NAME":"FENGYUN 1C DEB","OBJECT_ID":"1999-025BVC","EPOCH":"2026-04-02T09:40:24.687264","MEAN_MOTION":14.12609451,"ECCENTRICITY":0.00425812,"INCLINATION":98.7755,"RA_OF_ASC_NODE":142.0577,"ARG_OF_PERICENTER":288.8379,"MEAN_ANOMALY":87.0006,"EPHEMERIS_TYPE":0,"CLASSIFICATION_TYPE":"U","NORAD_CAT_ID":31464,"ELEMENT_SET_NO":999,"REV_AT_EPOCH":96242,"BSTAR":0.00033634408,"MEAN_MOTION_DOT":5.84e-6,"MEAN_MOTION_DDOT":0},{"OBJECT_NAME":"FENGYUN 1C DEB","OBJECT_ID":"1999-025BVE","EPOCH":"2026-04-03T01:52:13.083744","MEAN_MOTION":14.18663587,"ECCENTRICITY":0.02992583,"INCLINATION":99.0979,"RA_OF_ASC_NODE":30.9776,"ARG_OF_PERICENTER":352.0557,"MEAN_ANOMALY":7.5934,"EPHEMERIS_TYPE":0,"CLASSIFICATION_TYPE":"U","NORAD_CAT_ID":31466,"ELEMENT_SET_NO":999,"REV_AT_EPOCH":97907,"BSTAR":0.00037367582,"MEAN_MOTION_DOT":1.154e-5,"MEAN_MOTION_DDOT":0},{"OBJECT_NAME":"FENGYUN 1C DEB","OBJECT_ID":"1999-025BVG","EPOCH":"2026-04-05T05:54:57.867840","MEAN_MOTION":14.4712732,"ECCENTRICITY":0.01649678,"INCLINATION":98.1776,"RA_OF_ASC_NODE":92.4429,"ARG_OF_PERICENTER":179.6457,"MEAN_ANOMALY":180.4883,"EPHEMERIS_TYPE":0,"CLASSIFICATION_TYPE":"U","NORAD_CAT_ID":31468,"ELEMENT_SET_NO":999,"REV_AT_EPOCH":69013,"BSTAR":0.00040342125,"MEAN_MOTION_DOT":1.695e-5,"MEAN_MOTION_DDOT":0},{"OBJECT_NAME":"FENGYUN 1C DEB","OBJECT_ID":"1999-025BVK","EPOCH":"2026-03-12T10:54:16.182144","MEAN_MOTION":14.1594815,"ECCENTRICITY":0.0147601,"INCLINATION":97.9747,"RA_OF_ASC_NODE":310.7754,"ARG_OF_PERICENTER":94.6801,"MEAN_ANOMALY":267.125,"EPHEMERIS_TYPE":0,"CLASSIFICATION_TYPE":"U","NORAD_CAT_ID":31471,"ELEMENT_SET_NO":999,"REV_AT_EPOCH":65246,"BSTAR":0.001683,"MEAN_MOTION_DOT":3.652e-5,"MEAN_MOTION_DDOT":0},{"OBJECT_NAME":"FENGYUN 1C DEB","OBJECT_ID":"1999-025BVM","EPOCH":"2026-04-04T08:50:40.091712","MEAN_MOTION":14.30693782,"ECCENTRICITY":0.00648492,"INCLINATION":98.5304,"RA_OF_ASC_NODE":130.3537,"ARG_OF_PERICENTER":44.426,"MEAN_ANOMALY":331.1874,"EPHEMERIS_TYPE":0,"CLASSIFICATION_TYPE":"U","NORAD_CAT_ID":31473,"ELEMENT_SET_NO":999,"REV_AT_EPOCH":71131,"BSTAR":0.0021956996,"MEAN_MOTION_DOT":5.837e-5,"MEAN_MOTION_DDOT":0},{"OBJECT_NAME":"FENGYUN 1C DEB","OBJECT_ID":"1999-025BVN","EPOCH":"2026-04-04T20:39:21.773952","MEAN_MOTION":14.11150298,"ECCENTRICITY":0.00691112,"INCLINATION":99.1352,"RA_OF_ASC_NODE":147.68,"ARG_OF_PERICENTER":247.3466,"MEAN_ANOMALY":112.0386,"EPHEMERIS_TYPE":0,"CLASSIFICATION_TYPE":"U","NORAD_CAT_ID":31474,"ELEMENT_SET_NO":999,"REV_AT_EPOCH":96565,"BSTAR":0.0017233993,"MEAN_MOTION_DOT":3.13e-5,"MEAN_MOTION_DDOT":0},{"OBJECT_NAME":"FENGYUN 1C DEB","OBJECT_ID":"1999-025BVP","EPOCH":"2026-03-31T22:51:40.245696","MEAN_MOTION":14.38963409,"ECCENTRICITY":0.020917,"INCLINATION":98.9314,"RA_OF_ASC_NODE":349.2001,"ARG_OF_PERICENTER":144.6057,"MEAN_ANOMALY":216.9221,"EPHEMERIS_TYPE":0,"CLASSIFICATION_TYPE":"U","NORAD_CAT_ID":31475,"ELEMENT_SET_NO":999,"REV_AT_EPOCH":97649,"BSTAR":0.0006990962,"MEAN_MOTION_DOT":2.731e-5,"MEAN_MOTION_DDOT":0},{"OBJECT_NAME":"FENGYUN 1C DEB","OBJECT_ID":"1999-025BVQ","EPOCH":"2026-04-04T11:28:52.982400","MEAN_MOTION":14.22863495,"ECCENTRICITY":0.00517328,"INCLINATION":98.885,"RA_OF_ASC_NODE":173.9876,"ARG_OF_PERICENTER":205.3432,"MEAN_ANOMALY":154.5207,"EPHEMERIS_TYPE":0,"CLASSIFICATION_TYPE":"U","NORAD_CAT_ID":31476,"ELEMENT_SET_NO":999,"REV_AT_EPOCH":97302,"BSTAR":0.0018785568,"MEAN_MOTION_DOT":4.235e-5,"MEAN_MOTION_DDOT":0},{"OBJECT_NAME":"FENGYUN 1C DEB","OBJECT_ID":"1999-025BVR","EPOCH":"2026-04-05T05:48:06.380064","MEAN_MOTION":14.03023158,"ECCENTRICITY":0.01108274,"INCLINATION":98.8986,"RA_OF_ASC_NODE":87.332,"ARG_OF_PERICENTER":72.3986,"MEAN_ANOMALY":288.925,"EPHEMERIS_TYPE":0,"CLASSIFICATION_TYPE":"U","NORAD_CAT_ID":31477,"ELEMENT_SET_NO":999,"REV_AT_EPOCH":96995,"BSTAR":0.00021279503,"MEAN_MOTION_DOT":3.06e-6,"MEAN_MOTION_DDOT":0},{"OBJECT_NAME":"FENGYUN 1C DEB","OBJECT_ID":"1999-025BVU","EPOCH":"2026-04-05T00:34:53.261184","MEAN_MOTION":13.91207994,"ECCENTRICITY":0.03399362,"INCLINATION":98.3348,"RA_OF_ASC_NODE":299.8653,"ARG_OF_PERICENTER":266.235,"MEAN_ANOMALY":89.9888,"EPHEMERIS_TYPE":0,"CLASSIFICATION_TYPE":"U","NORAD_CAT_ID":31480,"ELEMENT_SET_NO":999,"REV_AT_EPOCH":94970,"BSTAR":0.0029466616,"MEAN_MOTION_DOT":5.901e-5,"MEAN_MOTION_DDOT":0},{"OBJECT_NAME":"FENGYUN 1C DEB","OBJECT_ID":"1999-025BVW","EPOCH":"2026-04-03T11:44:24.446976","MEAN_MOTION":14.36180261,"ECCENTRICITY":0.00878253,"INCLINATION":98.3854,"RA_OF_ASC_NODE":99.2961,"ARG_OF_PERICENTER":309.1286,"MEAN_ANOMALY":205.1872,"EPHEMERIS_TYPE":0,"CLASSIFICATION_TYPE":"U","NORAD_CAT_ID":31482,"ELEMENT_SET_NO":999,"REV_AT_EPOCH":98733,"BSTAR":0.0011583364,"MEAN_MOTION_DOT":3.487e-5,"MEAN_MOTION_DDOT":0}]
